NAVSTAR 77 (USA 289)    
1 43873U 18109A   24225.17343208 -.00000019  00000+0  00000+0 0  9996
2 43873  55.3163 118.8160 0029852 193.2302 339.8826  2.00558615 41557
